{
  "norad_id": 59465,
  "name": "STARLINK-31621",
  "history": [
    {
      "epoch": "2026-03-28T20:41:43.050912",
      "apogee_km": 483.5122251510302,
      "perigee_km": 482.50734159313834,
      "latitude_deg": -25.68817144188528,
      "longitude_deg": -150.71883232006803,
      "semi_major_axis_km": 6861.146783372084,
      "eccentricity": 7.323e-05,
      "inclination_deg": 43.0039,
      "raan_deg": 286.3632,
      "arg_perigee_deg": 278.1897,
      "mean_anomaly_deg": 81.8872,
      "mean_motion_rev_day": 15.27593129
    }
  ]
}