{"fetched_at":"2026-03-29T16:36:15Z","count":15609,"tles":[{"name":"STARLINK-31621","line1":"1 59465U 24068L   26087.86230383  .00001166  00000+0  51870-4 0  9993","line2":"2 59465  43.0039 286.3632 0000732 278.1897  81.8872 15.27593129111454","category":"Starlink"}]}